CAS-2T & KS-1Q          
1 41847U 16066G   20179.85218460  .00000060  00000-0  19676-4 0  9995
2 41847  98.6530 230.4745 0365360 197.7733 161.0393 14.38073558190919
NAYIF-1 (EO-88)         
1 42017U 17008BX  20179.84062144  .00000977  00000-0  40167-4 0  9993
2 42017  97.3593 247.2513 0004509 290.7510  69.3245 15.26523841187134
MAX VALIER SAT          
1 42778U 17036P   20179.79146455  .00000591  00000-0  28328-4 0  9997
2 42778  97.3040 233.1412 0011806 354.7971   5.3141 15.22637315167307
RADFXSAT (FOX-1B)       
1 43017U 17073E   20179.80873156  .00000526  00000-0  46159-4 0  9992
2 43017  97.7227  91.6445 0257526  16.9707 343.9921 14.78950955140691
FOX-1D (AO-92)          
1 43137U 18004AC  20179.85731892  .00000653  00000-0  29760-4 0  9995
2 43137  97.4452 250.9478 0009817  29.1388 331.0395 15.24141554136637
DIWATA-2B               
1 43678U 18084H   20179.87194912 -.00000369  00000-0 -30983-4 0  9996
2 43678  97.8866 298.2757 0010814 137.1089 223.0976 14.91631901 90572
ES'HAIL 2               
1 43700U 18090A   20179.82501095  .00000142  00000-0  00000-0 0  9998
2 43700   0.0142  57.0732 0001290  57.1075 124.9845  1.00272469  5812
FOX-1CLIFF (AO-95)      
1 43770U 18099N   20179.74909717  .00000601  00000-0  60139-4 0  9991
2 43770  97.7055 250.9503 0015279 157.1800 203.0103 14.94996556 85455
ITASAT 1                
1 43786U 18099AE  20179.74369227  .00000544  00000-0  54426-4 0  9992
2 43786  97.7069 251.3718 0016076 151.4943 208.7160 14.95333688 85470
JY1SAT (JO-97)          
1 43803U 18099AX  20179.75700743  .00000517  00000-0  51750-4 0  9992
2 43803  97.7032 251.2013 0015995 151.3990 208.8111 14.95514134 85471
PSAT2 (NO-104)          
1 44354U 19036R   20179.67954651  .00006403  00000-0  90706-4 0  9990
2 44354  28.5297 313.4395 0364325  60.2743 303.3592 15.03562299 55364
BRICSAT2 (NO-103)       
1 44355U 19036S   20179.65101994  .00012285  00000-0  16918-3 0  9990
2 44355  28.5294 304.4150 0342962  74.9274 288.8998 15.08988687 55449
JAISAT-1                
1 44419U 19038F   20179.67550828  .00000492  00000-0  31606-4 0  9998
2 44419  97.5391 141.1513 0023293  94.9287 265.4604 15.12793581 54145
DUCHIFAT-3              
1 44854U 19089C   20179.88531786  .00000155  00000-0  18979-4 0  9996
2 44854  36.9690  36.7025 0007016 154.9152 205.1929 14.99074222 29867
RS-44 & BREEZE-KM R/B   
1 44909U 19096E   20179.75670525  .00000027  00000-0  66519-4 0  9997
2 44909  82.5213 348.4657 0216999 202.1535 157.0081 12.79708039 23508
ORBITAL FACTORY 2 (OF-2)
1 45113U 19071C   20179.78153260  .00001236  00000-0  49268-4 0  9998
2 45113  51.6448 313.6554 0013596  95.1403 265.1131 15.33385675 22714
HUSKYSAT-1              
1 45119U 19071J   20179.69331662  .00000857  00000-0  37508-4 0  9990
2 45119  51.6444 313.8172 0012870  91.4129 268.8328 15.33599625 22699
